OBJECT_NAME,OBJECT_ID,EPOCH,MEAN_MOTION,ECCENTRICITY,INCLINATION,RA_OF_ASC_NODE,ARG_OF_PERICENTER,MEAN_ANOMALY,EPHEMERIS_TYPE,CLASSIFICATION_TYPE,NORAD_CAT_ID,ELEMENT_SET_NO,REV_AT_EPOCH,BSTAR,MEAN_MOTION_DOT,MEAN_MOTION_DDOT
IRIDIUM 135,2017-083A,2026-07-10T05:52:43.270464,14.34217171,.00021812,86.3981,312.3761,93.4059,266.7386,0,U,43070,999,44745,.5247004E-5,.34E-6,0
IRIDIUM 138,2017-083B,2026-07-10T18:12:31.197024,14.34217544,.0002077,86.3996,311.8606,91.6236,268.5197,0,U,43071,999,44751,.45167E-4,.146E-5,0
IRIDIUM 116,2017-083C,2026-07-10T17:26:50.590752,14.34220153,.0002404,86.3983,312.1606,99.2562,260.8905,0,U,43072,999,44754,.4542E-4,.147E-5,0
IRIDIUM 130,2017-083D,2026-07-10T06:38:23.302176,14.34216740,.00021648,86.3991,312.6264,101.1268,259.0172,0,U,43073,999,44742,.4712155E-4,.152E-5,0
IRIDIUM 151,2017-083E,2026-07-10T17:45:07.204608,14.34217189,.000222,86.3985,312.2135,95.2834,264.8615,0,U,43074,999,44751,.55311E-4,.175E-5,0
IRIDIUM 134,2017-083F,2026-07-10T08:37:07.224096,14.34217301,.0002075,86.3983,312.3811,95.5782,264.5650,0,U,43075,999,44742,.53297E-4,.169E-5,0
IRIDIUM 137,2017-083G,2026-07-10T17:17:43.352160,14.34217434,.0002652,86.3987,312.3232,95.5249,264.6250,0,U,43076,999,44754,.36463E-4,.122E-5,0
IRIDIUM 141,2017-083H,2026-07-10T20:29:31.096896,14.34217314,.0002135,86.3984,312.0969,92.9176,267.2264,0,U,43077,999,44756,.76186E-4,.233E-5,0
IRIDIUM 153,2017-083J,2026-07-11T05:23:27.396096,14.34217650,.0002116,86.3961,280.4217,94.4248,265.7189,0,U,43078,999,44872,.20068E-4,.76E-6,0
IRIDIUM 131,2017-083K,2026-07-10T06:47:31.286400,14.34216775,.00020794,86.3985,312.5225,92.5828,267.5606,0,U,43079,999,44741,-.3813306E-4,-.87E-6,0
IRIDIUM 144,2018-030A,2026-07-10T06:06:03.432096,14.34217693,.00023826,86.3959,280.7559,96.9893,263.1574,0,U,43249,999,43344,-.1470777E-5,.16E-6,0
IRIDIUM 149,2018-030B,2026-07-11T04:01:15.453408,14.34217677,.0002254,86.3959,280.3410,93.6238,266.5215,0,U,43250,999,43359,.44443E-4,.144E-5,0
IRIDIUM 157,2018-030C,2026-07-10T05:02:07.611648,14.34216466,.0002252,86.3961,280.7949,93.9359,266.2095,0,U,43251,999,43343,.10954022E-4,.5E-6,0
IRIDIUM 140,2018-030D,2026-07-10T15:32:19.514112,14.34216246,.0002212,86.3960,280.6247,95.5490,264.5958,0,U,43252,999,43355,.25603E-4,.91E-6,0
IRIDIUM 145,2018-030E,2026-07-11T04:37:47.256384,14.34216569,.0002431,86.3959,280.3682,99.3864,260.7607,0,U,43253,999,43356,.218E-4,.81E-6,0
IRIDIUM 146,2018-030F,2026-07-10T04:43:51.321792,14.34217536,.00024049,86.3960,280.7972,98.0496,262.0973,0,U,43254,999,43343,.58026678E-4,.182E-5,0
IRIDIUM 148,2018-030G,2026-07-11T05:05:11.675616,14.34216920,.0002353,86.3960,280.4165,93.1733,266.9732,0,U,43255,999,43361,.24057E-4,.87E-6,0
IRIDIUM 142,2018-030H,2026-07-11T04:19:31.484064,14.34217824,.0002413,86.3959,280.3177,97.8949,262.2521,0,U,43256,999,43357,.47181E-4,.152E-5,0
IRIDIUM 150,2018-030J,2026-07-10T04:07:18.893280,14.34219143,.00022151,86.3963,280.8566,95.9860,264.1588,0,U,43257,999,43345,-.94435944E-4,-.245E-5,0
IRIDIUM 143,2018-030K,2026-07-10T15:23:11.376096,14.34217733,.0002324,86.3964,280.7536,97.9591,262.1869,0,U,43258,999,43345,.63816E-4,.199E-5,0
IRIDIUM 161,2018-047C,2026-07-11T03:46:43.203072,14.43284936,.0002307,86.4467,78.4474,78.8180,281.3280,0,U,43478,999,42859,.45078E-4,.172E-5,0
IRIDIUM 152,2018-047D,2026-07-11T02:27:10.732320,14.34219134,.0002151,86.3941,78.3319,82.6545,277.4895,0,U,43479,999,42591,.42563E-4,.139E-5,0
IRIDIUM 147,2018-047E,2026-07-10T04:50:14.070336,14.34216920,.00022754,86.3943,78.7142,88.4445,271.7011,0,U,43480,999,42578,.70122931E-4,.216E-5,0
IRIDIUM 110,2018-047F,2026-07-11T02:45:26.320608,14.34217525,.0002192,86.3946,78.4248,77.1778,282.9663,0,U,43481,999,42590,.42682E-4,.139E-5,0
IRIDIUM 162,2018-047G,2026-07-10T02:40:06.655296,14.43283456,.00021871,86.4467,78.7759,84.2783,275.8667,0,U,43482,999,42843,.50126108E-4,.189E-5,0
IRIDIUM 160,2018-061A,2026-07-10T00:20:26.459232,14.34217652,.00022527,86.3937,47.2497,86.2180,273.9273,0,U,43569,999,41664,.32630468E-4,.111E-5,0
IRIDIUM 166,2018-061B,2026-07-10T12:40:14.359008,14.34217857,.0002258,86.3941,46.9848,89.6994,270.4461,0,U,43570,999,41674,.18862E-5,.25E-6,0
IRIDIUM 158,2018-061C,2026-07-11T01:18:18.438912,14.34217114,.0001983,86.3937,46.7743,86.1642,273.9780,0,U,43571,999,41678,-.49448E-6,.18E-6,0
IRIDIUM 165,2018-061D,2026-07-11T00:14:22.403328,14.34217063,.0002271,86.3944,46.8399,90.8618,269.2838,0,U,43572,999,41680,.25117E-4,.9E-6,0
IRIDIUM 155,2018-061E,2026-07-11T01:00:02.399616,14.34216631,.0001972,86.3933,46.6940,87.6996,272.4425,0,U,43573,999,41677,-.95022E-5,-.7E-7,0
